BLUEBON                 
1 62688U 25009CH  26068.70316231  .00010452  00000+0  37313-3 0  9992
2 62688  97.4017 152.2033 0001193  43.3900 316.7434 15.29047253 63767
STARLINK-35388          
1 66466U 25262L   26068.06620256  .00030121  00000+0  10992-2 0  9993
2 66466  43.0094 299.4635 0003743 248.6118 111.4335 15.27590459 18818
